[
  {
    "OBJECT_NAME": "STARLINK-1318",
    "OBJECT_ID": "20019BJ",
    "EPOCH": "2025-11-11T02:59:15.126432",
    "MEAN_MOTION": 15.61643498,
    "ECCENTRICITY": 0.0005734,
    "INCLINATION": 53.0501,
    "RA_OF_ASC_NODE": 272.3993,
    "ARG_OF_PERICENTER": 71.4933,
    "MEAN_ANOMALY": 288.6703,
    "EPHEMERIS_TYPE": 0,
    "CLASSIFICATION_TYPE": "U",
    "NORAD_CAT_ID": 45416,
    "ELEMENT_SET_NO": 999,
    "REV_AT_EPOCH": 31251,
    "BSTAR": 0.00070287,
    "MEAN_MOTION_DOT": 0.00061618,
    "MEAN_MOTION_DDOT": 0.0,
    "TLE_LINE1": "1 45416U 20019BJ  25315.12448063  .00061618  00000+0  70287-3 0  9994",
    "TLE_LINE2": "2 45416  53.0501 272.3993 0005734  71.4933 288.6703 15.61643498312510",
    "COMMENT": "Grouped by shell and plane from TLE"
  },
  {
    "OBJECT_NAME": "STARLINK-11305 [DTC]",
    "OBJECT_ID": "24175E",
    "EPOCH": "2025-11-11T07:01:39.034560",
    "MEAN_MOTION": 15.69695743,
    "ECCENTRICITY": 0.0001268,
    "INCLINATION": 53.1584,
    "RA_OF_ASC_NODE": 279.7193,
    "ARG_OF_PERICENTER": 100.9343,
    "MEAN_ANOMALY": 259.1818,
    "EPHEMERIS_TYPE": 0,
    "CLASSIFICATION_TYPE": "U",
    "NORAD_CAT_ID": 61247,
    "ELEMENT_SET_NO": 999,
    "REV_AT_EPOCH": 6477,
    "BSTAR": 0.0,
    "MEAN_MOTION_DOT": -1.39e-05,
    "MEAN_MOTION_DDOT": 0.0,
    "TLE_LINE1": "1 61247U 24175E   25315.29281290 -.00001390  00000+0 -66225-5 0  9998",
    "TLE_LINE2": "2 61247  53.1584 279.7193 0001268 100.9343 259.1818 15.69695743 64776",
    "COMMENT": "Grouped by shell and plane from TLE"
  },
  {
    "OBJECT_NAME": "STARLINK-11317 [DTC]",
    "OBJECT_ID": "24175F",
    "EPOCH": "2025-11-11T06:54:34.043328",
    "MEAN_MOTION": 15.6971154,
    "ECCENTRICITY": 0.000169,
    "INCLINATION": 53.1602,
    "RA_OF_ASC_NODE": 279.6841,
    "ARG_OF_PERICENTER": 80.9388,
    "MEAN_ANOMALY": 279.1821,
    "EPHEMERIS_TYPE": 0,
    "CLASSIFICATION_TYPE": "U",
    "NORAD_CAT_ID": 61248,
    "ELEMENT_SET_NO": 999,
    "REV_AT_EPOCH": 6477,
    "BSTAR": 3.0136000000000004e-05,
    "MEAN_MOTION_DOT": 3.063e-05,
    "MEAN_MOTION_DDOT": 0.0,
    "TLE_LINE1": "1 61248U 24175F   25315.28789402  .00003063  00000+0  30136-4 0  9994",
    "TLE_LINE2": "2 61248  53.1602 279.6841 0001690  80.9388 279.1821 15.69711540 64772",
    "COMMENT": "Grouped by shell and plane from TLE"
  },
  {
    "OBJECT_NAME": "STARLINK-11293 [DTC]",
    "OBJECT_ID": "24175G",
    "EPOCH": "2025-11-11T06:47:30.354144",
    "MEAN_MOTION": 15.69707902,
    "ECCENTRICITY": 0.0001348,
    "INCLINATION": 53.1596,
    "RA_OF_ASC_NODE": 279.6522,
    "ARG_OF_PERICENTER": 48.4956,
    "MEAN_ANOMALY": 311.6178,
    "EPHEMERIS_TYPE": 0,
    "CLASSIFICATION_TYPE": "U",
    "NORAD_CAT_ID": 61249,
    "ELEMENT_SET_NO": 999,
    "REV_AT_EPOCH": 6477,
    "BSTAR": 2.6484000000000003e-05,
    "MEAN_MOTION_DOT": 2.62e-05,
    "MEAN_MOTION_DDOT": 0.0,
    "TLE_LINE1": "1 61249U 24175G   25315.28299021  .00002620  00000+0  26484-4 0  9997",
    "TLE_LINE2": "2 61249  53.1596 279.6522 0001348  48.4956 311.6178 15.69707902 64775",
    "COMMENT": "Grouped by shell and plane from TLE"
  },
  {
    "OBJECT_NAME": "STARLINK-11651 [DTC]",
    "OBJECT_ID": "25085A",
    "EPOCH": "2025-11-11T00:42:57.775968",
    "MEAN_MOTION": 15.7103984,
    "ECCENTRICITY": 0.0001016,
    "INCLINATION": 42.9965,
    "RA_OF_ASC_NODE": 273.3112,
    "ARG_OF_PERICENTER": 227.4536,
    "MEAN_ANOMALY": 132.6246,
    "EPHEMERIS_TYPE": 0,
    "CLASSIFICATION_TYPE": "U",
    "NORAD_CAT_ID": 63664,
    "ELEMENT_SET_NO": 999,
    "REV_AT_EPOCH": 3159,
    "BSTAR": 0.0020446,
    "MEAN_MOTION_DOT": 0.0027299,
    "MEAN_MOTION_DDOT": 0.0,
    "TLE_LINE1": "1 63664U 25085A   25315.02983537  .00272990  00000+0  20446-2 0  9994",
    "TLE_LINE2": "2 63664  42.9965 273.3112 0001016 227.4536 132.6246 15.71039840 31598",
    "COMMENT": "Grouped by shell and plane from TLE"
  },
  {
    "OBJECT_NAME": "STARLINK-11672 [DTC]",
    "OBJECT_ID": "25085B",
    "EPOCH": "2025-11-11T06:41:32.855136",
    "MEAN_MOTION": 15.70890062,
    "ECCENTRICITY": 0.000175,
    "INCLINATION": 43.0006,
    "RA_OF_ASC_NODE": 271.7345,
    "ARG_OF_PERICENTER": 271.1872,
    "MEAN_ANOMALY": 88.8795,
    "EPHEMERIS_TYPE": 0,
    "CLASSIFICATION_TYPE": "U",
    "NORAD_CAT_ID": 63665,
    "ELEMENT_SET_NO": 999,
    "REV_AT_EPOCH": 3223,
    "BSTAR": 0.0011989,
    "MEAN_MOTION_DOT": 0.00156655,
    "MEAN_MOTION_DDOT": 0.0,
    "TLE_LINE1": "1 63665U 25085B   25315.27885249  .00156655  00000+0  11989-2 0  9994",
    "TLE_LINE2": "2 63665  43.0006 271.7345 0001750 271.1872  88.8795 15.70890062 32234",
    "COMMENT": "Grouped by shell and plane from TLE"
  },
  {
    "OBJECT_NAME": "STARLINK-11664 [DTC]",
    "OBJECT_ID": "25085C",
    "EPOCH": "2025-11-11T06:35:24.549216",
    "MEAN_MOTION": 15.70968371,
    "ECCENTRICITY": 0.0001339,
    "INCLINATION": 42.9995,
    "RA_OF_ASC_NODE": 272.5945,
    "ARG_OF_PERICENTER": 290.9478,
    "MEAN_ANOMALY": 69.1246,
    "EPHEMERIS_TYPE": 0,
    "CLASSIFICATION_TYPE": "U",
    "NORAD_CAT_ID": 63666,
    "ELEMENT_SET_NO": 999,
    "REV_AT_EPOCH": 3162,
    "BSTAR": 0.0027053,
    "MEAN_MOTION_DOT": 0.00364294,
    "MEAN_MOTION_DDOT": 0.0,
    "TLE_LINE1": "1 63666U 25085C   25315.27458969  .00364294  00000+0  27053-2 0  9999",
    "TLE_LINE2": "2 63666  42.9995 272.5945 0001339 290.9478  69.1246 15.70968371 31623",
    "COMMENT": "Grouped by shell and plane from TLE"
  },
  {
    "OBJECT_NAME": "STARLINK-11666 [DTC]",
    "OBJECT_ID": "25085D",
    "EPOCH": "2025-11-11T06:34:05.732544",
    "MEAN_MOTION": 15.70955834,
    "ECCENTRICITY": 0.0001682,
    "INCLINATION": 42.9993,
    "RA_OF_ASC_NODE": 272.5875,
    "ARG_OF_PERICENTER": 314.3222,
    "MEAN_ANOMALY": 45.7508,
    "EPHEMERIS_TYPE": 0,
    "CLASSIFICATION_TYPE": "U",
    "NORAD_CAT_ID": 63667,
    "ELEMENT_SET_NO": 999,
    "REV_AT_EPOCH": 3152,
    "BSTAR": 0.0024376000000000003,
    "MEAN_MOTION_DOT": 0.0032652,
    "MEAN_MOTION_DDOT": 0.0,
    "TLE_LINE1": "1 63667U 25085D   25315.27367746  .00326520  00000+0  24376-2 0  9997",
    "TLE_LINE2": "2 63667  42.9993 272.5875 0001682 314.3222  45.7508 15.70955834 31523",
    "COMMENT": "Grouped by shell and plane from TLE"
  },
  {
    "OBJECT_NAME": "STARLINK-11663 [DTC]",
    "OBJECT_ID": "25085E",
    "EPOCH": "2025-11-11T06:26:26.872512",
    "MEAN_MOTION": 15.70929943,
    "ECCENTRICITY": 0.0001651,
    "INCLINATION": 42.9991,
    "RA_OF_ASC_NODE": 272.5434,
    "ARG_OF_PERICENTER": 275.7668,
    "MEAN_ANOMALY": 84.3012,
    "EPHEMERIS_TYPE": 0,
    "CLASSIFICATION_TYPE": "U",
    "NORAD_CAT_ID": 63668,
    "ELEMENT_SET_NO": 999,
    "REV_AT_EPOCH": 3162,
    "BSTAR": 0.0021199,
    "MEAN_MOTION_DOT": 0.00282055,
    "MEAN_MOTION_DDOT": 0.0,
    "TLE_LINE1": "1 63668U 25085E   25315.26836658  .00282055  00000+0  21199-2 0  9994",
    "TLE_LINE2": "2 63668  42.9991 272.5434 0001651 275.7668  84.3012 15.70929943 31625",
    "COMMENT": "Grouped by shell and plane from TLE"
  },
  {
    "OBJECT_NAME": "STARLINK-11595 [DTC]",
    "OBJECT_ID": "25085F",
    "EPOCH": "2025-11-10T22:41:00.318048",
    "MEAN_MOTION": 15.70851038,
    "ECCENTRICITY": 0.0003736,
    "INCLINATION": 43.0001,
    "RA_OF_ASC_NODE": 274.4165,
    "ARG_OF_PERICENTER": 289.7683,
    "MEAN_ANOMALY": 70.2782,
    "EPHEMERIS_TYPE": 0,
    "CLASSIFICATION_TYPE": "U",
    "NORAD_CAT_ID": 63669,
    "ELEMENT_SET_NO": 999,
    "REV_AT_EPOCH": 3221,
    "BSTAR": 0.0026823000000000003,
    "MEAN_MOTION_DOT": 0.00359217,
    "MEAN_MOTION_DDOT": 0.0,
    "TLE_LINE1": "1 63669U 25085F   25314.94514257  .00359217  00000+0  26823-2 0  9991",
    "TLE_LINE2": "2 63669  43.0001 274.4165 0003736 289.7683  70.2782 15.70851038 32213",
    "COMMENT": "Grouped by shell and plane from TLE"
  },
  {
    "OBJECT_NAME": "STARLINK-11599 [DTC]",
    "OBJECT_ID": "25085G",
    "EPOCH": "2025-11-11T06:11:09.434112",
    "MEAN_MOTION": 15.70924681,
    "ECCENTRICITY": 0.0001742,
    "INCLINATION": 43.0001,
    "RA_OF_ASC_NODE": 272.4574,
    "ARG_OF_PERICENTER": 289.3591,
    "MEAN_ANOMALY": 70.7088,
    "EPHEMERIS_TYPE": 0,
    "CLASSIFICATION_TYPE": "U",
    "NORAD_CAT_ID": 63670,
    "ELEMENT_SET_NO": 999,
    "REV_AT_EPOCH": 3161,
    "BSTAR": 0.0025718000000000004,
    "MEAN_MOTION_DOT": 0.00344837,
    "MEAN_MOTION_DDOT": 0.0,
    "TLE_LINE1": "1 63670U 25085G   25315.25774808  .00344837  00000+0  25718-2 0  9992",
    "TLE_LINE2": "2 63670  43.0001 272.4574 0001742 289.3591  70.7088 15.70924681 31618",
    "COMMENT": "Grouped by shell and plane from TLE"
  },
  {
    "OBJECT_NAME": "STARLINK-11603 [DTC]",
    "OBJECT_ID": "25085H",
    "EPOCH": "2025-11-11T06:03:30.093696",
    "MEAN_MOTION": 15.71022743,
    "ECCENTRICITY": 0.0004063,
    "INCLINATION": 43.0027,
    "RA_OF_ASC_NODE": 272.4158,
    "ARG_OF_PERICENTER": 275.2312,
    "MEAN_ANOMALY": 84.8092,
    "EPHEMERIS_TYPE": 0,
    "CLASSIFICATION_TYPE": "U",
    "NORAD_CAT_ID": 63671,
    "ELEMENT_SET_NO": 999,
    "REV_AT_EPOCH": 3161,
    "BSTAR": 0.0026287,
    "MEAN_MOTION_DOT": 0.00354381,
    "MEAN_MOTION_DDOT": 0.0,
    "TLE_LINE1": "1 63671U 25085H   25315.25243164  .00354381  00000+0  26287-2 0  9996",
    "TLE_LINE2": "2 63671  43.0027 272.4158 0004063 275.2312  84.8092 15.71022743 31619",
    "COMMENT": "Grouped by shell and plane from TLE"
  }
]